{
    "links": {
        "self": "http://www.neowsapp.com/rest/v1/neo/3479119?api_key=iIulBulltgU6a56xZRHN4H3l9WmuAYTsLGpBGhQ2"
    },
    "id": "3479119",
    "neo_reference_id": "3479119",
    "name": "(2009 WE106)",
    "designation": "2009 WE106",
    "nasa_jpl_url": "http://ssd.jpl.nasa.gov/sbdb.cgi?sstr=3479119",
    "absolute_magnitude_h": 27.2,
    "estimated_diameter": {
        "kilometers": {
            "estimated_diameter_min": 0.0096506147,
            "estimated_diameter_max": 0.0215794305
        },
        "meters": {
            "estimated_diameter_min": 9.6506146958,
            "estimated_diameter_max": 21.5794304844
        },
        "miles": {
            "estimated_diameter_min": 0.0059966121,
            "estimated_diameter_max": 0.0134088323
        },
        "feet": {
            "estimated_diameter_min": 31.6621227185,
            "estimated_diameter_max": 70.7986587106
        }
    },
    "is_potentially_hazardous_asteroid": false,
    "close_approach_data": [
        {
            "close_approach_date": "2009-11-30",
            "close_approach_date_full": "2009-Nov-30 07:18",
            "epoch_date_close_approach": 1259565480000,
            "relative_velocity": {
                "kilometers_per_second": "7.944749735",
                "kilometers_per_hour": "28601.0990461541",
                "miles_per_hour": "17771.6106823173"
            },
            "miss_distance": {
                "astronomical": "0.0243289007",
                "lunar": "9.4639423723",
                "kilometers": "3639551.724161509",
                "miles": "2261512.5736624642"
            },
            "orbiting_body": "Earth"
        },
        {
            "close_approach_date": "2067-10-22",
            "close_approach_date_full": "2067-Oct-22 08:57",
            "epoch_date_close_approach": 3086499420000,
            "relative_velocity": {
                "kilometers_per_second": "21.653874978",
                "kilometers_per_hour": "77953.9499209685",
                "miles_per_hour": "48437.5529383929"
            },
            "miss_distance": {
                "astronomical": "0.4652444805",
                "lunar": "180.9801029145",
                "kilometers": "69599583.312056535",
                "miles": "43247175.671928783"
            },
            "orbiting_body": "Earth"
        }
    ],
    "orbital_data": {
        "orbit_id": "6",
        "orbit_determination_date": "2017-04-06 08:58:52",
        "first_observation_date": "2009-11-25",
        "last_observation_date": "2009-11-27",
        "data_arc_in_days": 2,
        "observations_used": 27,
        "orbit_uncertainty": "8",
        "minimum_orbit_intersection": ".0134605",
        "jupiter_tisserand_invariant": "3.701",
        "epoch_osculation": "2455161.5",
        "eccentricity": ".5027295762289664",
        "semi_major_axis": "1.971182818232918",
        "inclination": "4.389319559433243",
        "ascending_node_longitude": "66.88699924178373",
        "orbital_period": "1010.854815558704",
        "perihelion_distance": ".9802109153528632",
        "perihelion_argument": "24.26282214949239",
        "aphelion_distance": "2.962154721112972",
        "perihelion_time": "2455183.937872173132",
        "mean_anomaly": "352.0091057014325",
        "mean_motion": ".3561342286340364",
        "equinox": "J2000",
        "orbit_class": {
            "orbit_class_type": "APO",
            "orbit_class_description": "Near-Earth asteroid orbits which cross the Earth’s orbit similar to that of 1862 Apollo",
            "orbit_class_range": "a (semi-major axis) > 1.0 AU; q (perihelion) < 1.017 AU"
        }
    },
    "is_sentry_object": false
}